TEVEL2-7                
1 63238U 25052AE  26068.66113295  .00019244  00000+0  69668-3 0  9998
2 63238  97.4054 324.3041 0008105 124.6830 235.5175 15.28414096 54803
STARLINK-35812          
1 66574U 25268T   26068.14199134  .00029196  00000+0  10661-2 0  9997
2 66574  42.9983 350.3598 0001275 269.6091  90.4615 15.27584612 17875
